{
  "53631": {
    "noradId": "53631",
    "tle": [
      "1 53631C 22104AV  25271.11715278 -.00005854  00000+0 -36707-3 0  2718",
      "2 53631  53.2156 243.4592 0001455  88.9398  97.6787 15.08843534    17"
    ]
  },
  "53632": {
    "noradId": "53632",
    "tle": [
      "1 53632C 22104AW  25271.11784722 -.00016477  00000+0 -10334-2 0  2719",
      "2 53632  53.2154 233.9188 0001358  91.3841 233.7059 15.08850519    10"
    ]
  },
  "53633": {
    "noradId": "53633",
    "tle": [
      "1 53633C 22104AX  25271.12409722 -.00006483  00000+0 -40660-3 0  2717",
      "2 53633  53.2156 233.9298 0001336  90.7640 248.2737 15.08841119    11"
    ]
  },
  "53634": {
    "noradId": "53634",
    "tle": [
      "1 53634C 22104AY  25271.11645833 -.00035265  00000+0 -22069-2 0  2714",
      "2 53634  53.2151 233.8471 0001097  85.5119 271.9343 15.08947654    13"
    ]
  },
  "53635": {
    "noradId": "53635",
    "tle": [
      "1 53635C 22104AZ  25271.12201389  .00012594  00000+0  79006-3 0  2712",
      "2 53635  53.2148 233.8613 0001318  73.4786 294.3288 15.08809570    11"
    ]
  },
  "53636": {
    "noradId": "53636",
    "tle": [
      "1 53636C 22104BA  25271.12201389 -.00010603  00000+0 -66494-3 0  2711",
      "2 53636  53.2150 233.7430 0001360  87.4408 340.3974 15.08847574    14"
    ]
  },
  "53637": {
    "noradId": "53637",
    "tle": [
      "1 53637C 22104BB  25271.12062500 -.00014480  00000+0 -90806-3 0  2713",
      "2 53637  53.2151 234.1066 0001359  91.6903 143.1615 15.08851166    14"
    ]
  },
  "53638": {
    "noradId": "53638",
    "tle": [
      "1 53638C 22104BC  25271.11715278 -.00022716  00000+0 -14247-2 0  2715",
      "2 53638  53.2142 233.5720 0001342  87.7121  53.8389 15.08856823    15"
    ]
  },
  "53639": {
    "noradId": "53639",
    "tle": [
      "1 53639C 22104BD  25271.11784722 -.00005672  00000+0 -35567-3 0  2717",
      "2 53639  53.2153 233.7225 0001803 103.0694 322.1418 15.08843139    10"
    ]
  },
  "53640": {
    "noradId": "53640",
    "tle": [
      "1 53640C 22104BE  25271.11993056 -.00049346  00000+0 -30933-2 0  2718",
      "2 53640  53.2146 233.6743 0001515  82.0719  14.4488 15.08900186    16"
    ]
  },
  "53641": {
    "noradId": "53641",
    "tle": [
      "1 53641C 22104BF  25271.11437500 -.00024090  00000+0 -15110-2 0  2715",
      "2 53641  53.2154 233.8112 0001270  91.7922 274.5555 15.08853246    17"
    ]
  },
  "53648": {
    "noradId": "53648",
    "tle": [
      "1 53648C 22105A   25271.11854167  .00001116  00000+0  87011-4 0  2718",
      "2 53648  97.6024 151.0585 0002993  75.1459 134.0177 15.01263329    11"
    ]
  },
  "53649": {
    "noradId": "53649",
    "tle": [
      "1 53649C 22105B   25271.11784722  .00487790  00000+0  37182-1 0  2715",
      "2 53649  97.6026 151.0588 0002045  88.2863 127.3976 15.01648014    19"
    ]
  },
  "53650": {
    "noradId": "53650",
    "tle": [
      "1 53650C 22105C   25271.11993056 -.00002628  00000+0 -20499-3 0  2719",
      "2 53650  97.6012 151.0604 0003504  65.8126 170.8510 15.01267384    13"
    ]
  },
  "53651": {
    "noradId": "53651",
    "tle": [
      "1 53651C 22105D   25271.12201389 -.00002751  00000+0 -21455-3 0  2712",
      "2 53651  97.6008 151.0625 0003988  54.4695 203.4471 15.01267160    14"
    ]
  },
  "53652": {
    "noradId": "53652",
    "tle": [
      "1 53652C 22105E   25271.12270833 -.00000089  00000+0 -69031-5 0  2719",
      "2 53652  97.6005 151.0631 0003794  51.0266 220.6427 15.01263354    14"
    ]
  },
  "53653": {
    "noradId": "53653",
    "tle": [
      "1 53653C 22105F   25271.12340278 -.00009789  00000+0 -76346-3 0  2712",
      "2 53653  97.6040 151.0140 0001902  87.0473  88.3308 15.01278534    10"
    ]
  },
  "53654": {
    "noradId": "53654",
    "tle": [
      "1 53654C 22105G   25271.11923611  .00001320  00000+0  10294-3 0  2711",
      "2 53654  97.6000 151.0589 0003179  55.0973 227.8271 15.01259370    18"
    ]
  },
  "53655": {
    "noradId": "53655",
    "tle": [
      "1 53655C 22105H   25271.11854167  .00000310  00000+0  24180-4 0  2719",
      "2 53655  97.6002 151.0588 0002783  68.5570 190.5295 15.01284761    16"
    ]
  },
  "53656": {
    "noradId": "53656",
    "tle": [
      "1 53656C 22105J   25271.11854167  .00000187  00000+0  14624-4 0  2714",
      "2 53656  97.6000 151.0612 0002283  89.6507 219.5203 15.01262023    10"
    ]
  },
  "53657": {
    "noradId": "53657",
    "tle": [
      "1 53657C 22105K   25271.11854167  .00447250  00000+0  62600-2 0  2716",
      "2 53657  97.6551 154.7684 0001502  77.5716  48.8541 15.56372092    18"
    ]
  },
  "53658": {
    "noradId": "53658",
    "tle": [
      "1 53658C 22105L   25271.11715278  .00485350  00000+0  37161-1 0  2712",
      "2 53658  97.6018 151.0557 0002286  82.9800 208.7633 15.01480396    16"
    ]
  },
  "53659": {
    "noradId": "53659",
    "tle": [
      "1 53659C 22105M   25271.11784722  .00021546  00000+0  16803-2 0  2717",
      "2 53659  97.5999 151.0562 0004226  69.1383 214.8355 15.01242376    12"
    ]
  },
  "53660": {
    "noradId": "53660",
    "tle": [
      "1 53660C 22105N   25271.11993056 -.00007459  00000+0 -58141-3 0  2712",
      "2 53660  97.6006 151.0560 0002096  96.1171 240.4685 15.01294798    16"
    ]
  },
  "53661": {
    "noradId": "53661",
    "tle": [
      "1 53661C 22105P   25271.12548611 -.00002365  00000+0 -18444-3 0  2710",
      "2 53661  97.6002 151.0662 0002254  79.5077 275.8491 15.01265588    14"
    ]
  },
  "53662": {
    "noradId": "53662",
    "tle": [
      "1 53662C 22105Q   25271.11715278  .00000634  00000+0  49459-4 0  2711",
      "2 53662  97.6007 151.0525 0002516  85.7014 254.6476 15.01260797    14"
    ]
  },
  "53663": {
    "noradId": "53663",
    "tle": [
      "1 53663C 22105R   25271.12409722  .00403260  00000+0  31270-1 0  2718",
      "2 53663  97.6010 151.0609 0002204  85.3035 263.9180 15.01080229    10"
    ]
  },
  "53664": {
    "noradId": "53664",
    "tle": [
      "1 53664C 22105S   25271.11437500 -.00040467  00000+0 -31560-2 0  2714",
      "2 53664  97.6010 151.0524 0001468  88.8113 256.5220 15.01310071    17"
    ]
  },
  "53665": {
    "noradId": "53665",
    "tle": [
      "1 53665C 22105T   25271.11923611  .00008208  00000+0  64040-3 0  2713",
      "2 53665  97.5999 151.0675 0001205  77.9040 285.0424 15.01246990    18"
    ]
  },
  "53667": {
    "noradId": "53667",
    "tle": [
      "1 53667C 22105V   25271.11923611  .00004762  00000+0  33800-3 0  2716",
      "2 53667  97.6022 151.0742 0001734  90.4457 293.4077 15.04826356    12"
    ]
  },
  "53668": {
    "noradId": "53668",
    "tle": [
      "1 53668C 22105W   25271.11854167  .00010376  00000+0  80896-3 0  2711",
      "2 53668  97.6011 151.0249 0001204  90.8654 288.2845 15.01270129    11"
    ]
  },
  "53669": {
    "noradId": "53669",
    "tle": [
      "1 53669C 22105X   25271.12687500  .00006426  00000+0  50119-3 0  2714",
      "2 53669  97.6008 151.0534 0001839  91.9912 302.1805 15.01257290    14"
    ]
  },
  "53670": {
    "noradId": "53670",
    "tle": [
      "1 53670C 22105Y   25271.11923611 -.00001886  00000+0 -14709-3 0  2713",
      "2 53670  97.6013 151.0517 0000971 170.0439 232.8714 15.01265477    16"
    ]
  },
  "53671": {
    "noradId": "53671",
    "tle": [
      "1 53671C 22105Z   25271.12340278  .00004013  00000+0  31302-3 0  2718",
      "2 53671  97.6012 151.0599 0001717  90.8651 333.2445 15.01257581    14"
    ]
  },
  "53672": {
    "noradId": "53672",
    "tle": [
      "1 53672C 22105AA  25271.12062500  .00005244  00000+0  40923-3 0  2714",
      "2 53672  97.6014 151.0756 0001560  91.3566  29.2025 15.01238951    15"
    ]
  },
  "53673": {
    "noradId": "53673",
    "tle": [
      "1 53673C 22105AB  25271.12548611 -.00001385  00000+0 -10801-3 0  2713",
      "2 53673  97.6000 151.0652 0004685  60.5266 244.8238 15.01265593    15"
    ]
  },
  "53674": {
    "noradId": "53674",
    "tle": [
      "1 53674C 22105AC  25271.12340278  .00002881  00000+0  22474-3 0  2712",
      "2 53674  97.6015 151.0550 0001942 124.0085 331.4115 15.01260969    16"
    ]
  },
  "53675": {
    "noradId": "53675",
    "tle": [
      "1 53675C 22105AD  25271.12270833  .00490030  00000+0  36760-1 0  2710",
      "2 53675  97.6028 151.0654 0002022  90.2049  33.2660 15.02252238    13"
    ]
  },
  "53676": {
    "noradId": "53676",
    "tle": [
      "1 53676C 22105AE  25271.12340278  .00006986  00000+0  54495-3 0  2712",
      "2 53676  97.6016 151.0549 0001728 175.1788 300.2481 15.01254711    14"
    ]
  },
  "53677": {
    "noradId": "53677",
    "tle": [
      "1 53677C 22105AF  25271.12270833  .00006478  00000+0  50539-3 0  2713",
      "2 53677  97.6014 151.0544 0001786 123.2869 318.4251 15.01246717    19"
    ]
  },
  "53679": {
    "noradId": "53679",
    "tle": [
      "1 53679C 22105AH  25271.11993056 -.00001997  00000+0 -14170-3 0  2717",
      "2 53679  97.6027 151.0677 0001788  94.7964  28.9586 15.04842146    17"
    ]
  },
  "53680": {
    "noradId": "53680",
    "tle": [
      "1 53680C 22105AJ  25271.12131944 -.00001963  00000+0 -15311-3 0  2711",
      "2 53680  97.6024 151.0558 0001917  92.9754  41.2262 15.01256783    17"
    ]
  },
  "53681": {
    "noradId": "53681",
    "tle": [
      "1 53681C 22105AK  25271.11993056  .00009132  00000+0  71238-3 0  2715",
      "2 53681  97.6034 151.0692 0001805  85.3245  51.3587 15.01251726    19"
    ]
  },
  "53682": {
    "noradId": "53682",
    "tle": [
      "1 53682C 22105AL  25271.11923611 -.00005448  00000+0 -42494-3 0  2716",
      "2 53682  97.6037 151.0746 0002514  88.3720  94.5518 15.01269190    19"
    ]
  },
  "53683": {
    "noradId": "53683",
    "tle": [
      "1 53683C 22105AM  25271.12270833  .00004485  00000+0  34987-3 0  2715",
      "2 53683  97.6016 151.0498 0001228  91.0503  29.2978 15.01258914    19"
    ]
  }
}